TRANSIT 16 [?]          
1 02807U 67048A   22282.57115816  .00000147  00000+0  21410-3 0  9994
2 02807  89.6627  32.5373 0019140 226.6848 144.3132 13.50329996726179
TRANSIT 17 [?]          
1 02965U 67092A   22282.52980615  .00000143  00000+0  19517-3 0  9991
2 02965  89.2303 114.6362 0048004   6.7043  45.9429 13.53041561714068
TRANSIT 18 [?]          
1 03133U 68012A   22282.52964397  .00000139  00000+0  19848-3 0  9993
2 03133  90.0018 271.6363 0073137 291.5684 186.7006 13.51167873412494
NNSS 19 [?]             
1 04507U 70067A   22281.89136630  .00000213  00000+0  28499-3 0  9997
2 04507  89.9274 238.4644 0174310  55.9687 305.7880 13.50845606565470
NNSS O-20 [?]           
1 06909U 73081A   22282.50753089  .00000283  00000+0  28370-3 0  9991
2 06909  89.8137 275.2769 0154955 315.9861  42.9047 13.70703928644631
TRANSAT [?]             
1 10457U 77106A   22282.55638609  .00000101  00000+0  14548-3 0  9992
2 10457  89.6724 118.8421 0023523 300.6165 112.6286 13.48690518211045
NOVA I [?]              
1 12458U 81044A   22282.57426932  .00000106  00000+0  22992-3 0  9994
2 12458  89.8790 106.4215 0016098  66.0710 356.0965 13.23075681998439
NOVA 3 [?]              
1 15362U 84110A   22282.47399212  .00000078  00000+0  16537-3 0  9993
2 15362  90.0996  68.0369 0030216 288.9858 135.2147 13.22842451833586
OSCAR 30 [?]            
1 15935U 85066A   22282.48341954  .00000106  00000+0  17341-3 0  9997
2 15935  90.1752  79.8789 0170405 116.5701 304.7998 13.35768257809627
OSCAR 24 [?]            
1 15936U 85066B   22281.66149847  .00000095  00000+0  15427-3 0  9994
2 15936  90.1727  71.7979 0170846 124.5912 248.0585 13.35628267811434
POLAR BEAR [?]          
1 17070U 86088A   22282.40441800  .00000141  00000+0  13541-3 0  9994
2 17070  89.5698 232.3904 0040106  22.7749  90.6556 13.74883426800338
OSCAR 27 [?]            
1 18361U 87080A   22282.37439175  .00000121  00000+0  18946-3 0  9991
2 18361  90.3390  38.0108 0102740 307.8734  51.3153 13.44576634719627
OSCAR 29 [?]            
1 18362U 87080B   22282.59459911  .00000096  00000+0  14864-3 0  9992
2 18362  90.3403  38.3566 0104850 328.0478  42.0823 13.44165333719236
OSCAR 23 [?]            
1 19070U 88033A   22282.42665877  .00000096  00000+0  17629-3 0  9992
2 19070  90.3316 340.4341 0190578 166.3045 206.1624 13.27533084668574
OSCAR 32 [?]            
1 19071U 88033B   22282.40439272  .00000106  00000+0  19397-3 0  9995
2 19071  90.3318 340.5211 0189273 154.2695 218.9962 13.27712633668677
NOVA 11 [?]             
1 19223U 88052A   22282.46406313  .00000075  00000+0  15810-3 0  9992
2 19223  89.9717  80.5702 0029790 334.3053  79.0091 13.22752751656086
OSCAR 25 [?]            
1 19419U 88074A   22282.53691317  .00000116  00000+0  18576-3 0  9999
2 19419  90.0127  17.9576 0094830 316.3651  54.1645 13.42306149670741
OSCAR 31 [?]            
1 19420U 88074B   22282.55032354  .00000113  00000+0  18084-3 0  9994
2 19420  90.0138  18.1455 0092909 310.4043  60.8218 13.42316449670855
